{
  "type": "FeatureCollection",
  "features": [
    {
      "type": "Feature",
      "properties": {
        "norad_id": 64903,
        "name": "CO3D 1",
        "group": "resource",
        "lat": -14.317893867673092,
        "lon": 74.64906497234415,
        "alt_km": 510.06837725415335,
        "timestamp": "2025-12-22T14:45:57.042961+00:00",
        "meta_object_name": "CO3D 1",
        "meta_object_id": "2025-156E",
        "meta_epoch": "2025-12-22T05:21:02.589696",
        "meta_mean_motion": 15.20195023,
        "meta_eccentricity": 9.814e-05,
        "meta_inclination": 97.4338,
        "meta_ra_of_asc_node": 72.3527,
        "meta_arg_of_pericenter": 84.5744,
        "meta_mean_anomaly": 275.5604,
        "meta_ephemeris_type": 0,
        "meta_classification_type": "U",
        "meta_norad_cat_id": 64903,
        "meta_element_set_no": 999,
        "meta_rev_at_epoch": 2264,
        "meta_bstar": 0.00033001475,
        "meta_mean_motion_dot": 7.082e-05,
        "meta_mean_motion_ddot": 0,
        "tle_line1": "1 64903U 25156E   25356.22294664  .00007082  00000+0  33001-3 0  9993",
        "tle_line2": "2 64903  97.4338  72.3527 0000981  84.5744 275.5604 15.20195023 22645"
      },
      "geometry": {
        "type": "Point",
        "coordinates": [
          74.64906497234415,
          -14.317893867673092
        ]
      }
    },
    {
      "type": "Feature",
      "properties": {
        "norad_id": 66514,
        "name": "SENTINEL-6B",
        "group": "resource",
        "lat": -59.61867276377117,
        "lon": 92.57756084306189,
        "alt_km": 1336.228689221396,
        "timestamp": "2025-12-22T14:45:57.042971+00:00",
        "meta_object_name": "SENTINEL-6B",
        "meta_object_id": "2025-264A",
        "meta_epoch": "2025-12-12T06:01:21.427680",
        "meta_mean_motion": 12.81479575,
        "meta_eccentricity": 0.0007848,
        "meta_inclination": 66.0385,
        "meta_ra_of_asc_node": 163.4531,
        "meta_arg_of_pericenter": 270.1375,
        "meta_mean_anomaly": 89.8741,
        "meta_ephemeris_type": 0,
        "meta_classification_type": "U",
        "meta_norad_cat_id": 66514,
        "meta_element_set_no": 999,
        "meta_rev_at_epoch": 322,
        "meta_bstar": 0.00018195,
        "meta_mean_motion_dot": -1.9e-07,
        "meta_mean_motion_ddot": 0,
        "tle_line1": "1 66514U 25264A   25346.25094245 -.00000019  00000+0  18195-3 0  9999",
        "tle_line2": "2 66514  66.0385 163.4531 0007848 270.1375  89.8741 12.81479575  3220"
      },
      "geometry": {
        "type": "Point",
        "coordinates": [
          92.57756084306189,
          -59.61867276377117
        ]
      }
    }
  ]
}